[{"OBJECT_NAME":"STARLINK-3659","OBJECT_ID":"2022-025AX","EPOCH":"2026-03-09T07:09:04.481856","MEAN_MOTION":15.08833668,"ECCENTRICITY":0.00012842,"INCLINATION":53.2186,"RA_OF_ASC_NODE":20.8871,"ARG_OF_PERICENTER":89.3887,"MEAN_ANOMALY":270.7252,"EPHEMERIS_TYPE":0,"CLASSIFICATION_TYPE":"U","NORAD_CAT_ID":52001,"ELEMENT_SET_NO":999,"REV_AT_EPOCH":22086,"BSTAR":-2.901443e-5,"MEAN_MOTION_DOT":-7.5e-6,"MEAN_MOTION_DDOT":0},{"OBJECT_NAME":"UPPER FREE FLYER","OBJECT_ID":"2018-099F","EPOCH":"2026-03-09T16:53:56.769792","MEAN_MOTION":15.10728091,"ECCENTRICITY":0.00115819,"INCLINATION":97.4495,"RA_OF_ASC_NODE":120.4613,"ARG_OF_PERICENTER":289.4209,"MEAN_ANOMALY":70.5769,"EPHEMERIS_TYPE":0,"CLASSIFICATION_TYPE":"U","NORAD_CAT_ID":43763,"ELEMENT_SET_NO":999,"REV_AT_EPOCH":39752,"BSTAR":0.00029221901,"MEAN_MOTION_DOT":4.788e-5,"MEAN_MOTION_DDOT":0}]
